CCSDS_OMM_VERS = 2.0
CREATION_DATE  = 
ORIGINATOR     = 

OBJECT_NAME    = STARLINK-37012
OBJECT_ID      = 2026-053Q
CENTER_NAME    = EARTH
REF_FRAME      = TEME
TIME_SYSTEM    = UTC
MEAN_ELEMENT_THEORY = SGP/SGP4

EPOCH          = 2026-03-30T04:00:01.999584
MEAN_MOTION    = 15.80846847
ECCENTRICITY   = .0001426
INCLINATION    = 97.2843
RA_OF_ASC_NODE = 324.4496
ARG_OF_PERICENTER = 83.3262
MEAN_ANOMALY   = 257.4998

EPHEMERIS_TYPE = 0
CLASSIFICATION_TYPE = U
NORAD_CAT_ID   = 68221
ELEMENT_SET_NO = 999
REV_AT_EPOCH   = 330
BSTAR          = -.26793E-3
MEAN_MOTION_DOT = -.51235E-3
MEAN_MOTION_DDOT = 0

CCSDS_OMM_VERS = 2.0
CREATION_DATE  = 
ORIGINATOR     = 

OBJECT_NAME    = STARLINK-37110
OBJECT_ID      = 2026-053R
CENTER_NAME    = EARTH
REF_FRAME      = TEME
TIME_SYSTEM    = UTC
MEAN_ELEMENT_THEORY = SGP/SGP4

EPOCH          = 2026-03-30T04:00:01.999584
MEAN_MOTION    = 15.80858602
ECCENTRICITY   = .0001293
INCLINATION    = 97.2844
RA_OF_ASC_NODE = 324.4531
ARG_OF_PERICENTER = 70.8053
MEAN_ANOMALY   = 278.5703

EPHEMERIS_TYPE = 0
CLASSIFICATION_TYPE = U
NORAD_CAT_ID   = 68222
ELEMENT_SET_NO = 999
REV_AT_EPOCH   = 330
BSTAR          = -.89548E-4
MEAN_MOTION_DOT = -.17294E-3
MEAN_MOTION_DDOT = 0

CCSDS_OMM_VERS = 2.0
CREATION_DATE  = 
ORIGINATOR     = 

OBJECT_NAME    = STARLINK-37025
OBJECT_ID      = 2026-053S
CENTER_NAME    = EARTH
REF_FRAME      = TEME
TIME_SYSTEM    = UTC
MEAN_ELEMENT_THEORY = SGP/SGP4

EPOCH          = 2026-03-30T04:00:01.999584
MEAN_MOTION    = 15.80797562
ECCENTRICITY   = .0001192
INCLINATION    = 97.2846
RA_OF_ASC_NODE = 324.4536
ARG_OF_PERICENTER = 103.5209
MEAN_ANOMALY   = 250.1542

EPHEMERIS_TYPE = 0
CLASSIFICATION_TYPE = U
NORAD_CAT_ID   = 68223
ELEMENT_SET_NO = 999
REV_AT_EPOCH   = 330
BSTAR          = .16531E-4
MEAN_MOTION_DOT = .3023E-4
MEAN_MOTION_DDOT = 0

CCSDS_OMM_VERS = 2.0
CREATION_DATE  = 
ORIGINATOR     = 

OBJECT_NAME    = STARLINK-36977
OBJECT_ID      = 2026-053T
CENTER_NAME    = EARTH
REF_FRAME      = TEME
TIME_SYSTEM    = UTC
MEAN_ELEMENT_THEORY = SGP/SGP4

EPOCH          = 2026-03-30T04:00:01.999584
MEAN_MOTION    = 15.80825353
ECCENTRICITY   = .0001578
INCLINATION    = 97.2846
RA_OF_ASC_NODE = 324.4547
ARG_OF_PERICENTER = 73.6697
MEAN_ANOMALY   = 284.2653

EPHEMERIS_TYPE = 0
CLASSIFICATION_TYPE = U
NORAD_CAT_ID   = 68224
ELEMENT_SET_NO = 999
REV_AT_EPOCH   = 319
BSTAR          = -.13837E-3
MEAN_MOTION_DOT = -.26579E-3
MEAN_MOTION_DDOT = 0

CCSDS_OMM_VERS = 2.0
CREATION_DATE  = 
ORIGINATOR     = 

OBJECT_NAME    = STARLINK-36960
OBJECT_ID      = 2026-053U
CENTER_NAME    = EARTH
REF_FRAME      = TEME
TIME_SYSTEM    = UTC
MEAN_ELEMENT_THEORY = SGP/SGP4

EPOCH          = 2026-03-30T04:00:01.999584
MEAN_MOTION    = 15.80806527
ECCENTRICITY   = .0001429
INCLINATION    = 97.2846
RA_OF_ASC_NODE = 324.4576
ARG_OF_PERICENTER = 95.0706
MEAN_ANOMALY   = 267.1554

EPHEMERIS_TYPE = 0
CLASSIFICATION_TYPE = U
NORAD_CAT_ID   = 68225
ELEMENT_SET_NO = 999
REV_AT_EPOCH   = 328
BSTAR          = -.12487E-3
MEAN_MOTION_DOT = -.23985E-3
MEAN_MOTION_DDOT = 0

CCSDS_OMM_VERS = 2.0
CREATION_DATE  = 
ORIGINATOR     = 

OBJECT_NAME    = STARLINK-37038
OBJECT_ID      = 2026-053V
CENTER_NAME    = EARTH
REF_FRAME      = TEME
TIME_SYSTEM    = UTC
MEAN_ELEMENT_THEORY = SGP/SGP4

EPOCH          = 2026-03-30T04:00:01.999584
MEAN_MOTION    = 15.80794462
ECCENTRICITY   = .0001348
INCLINATION    = 97.2846
RA_OF_ASC_NODE = 324.4605
ARG_OF_PERICENTER = 79.4748
MEAN_ANOMALY   = 291.2873

EPHEMERIS_TYPE = 0
CLASSIFICATION_TYPE = U
NORAD_CAT_ID   = 68226
ELEMENT_SET_NO = 999
REV_AT_EPOCH   = 328
BSTAR          = .17292E-3
MEAN_MOTION_DOT = .33072E-3
MEAN_MOTION_DDOT = 0

CCSDS_OMM_VERS = 2.0
CREATION_DATE  = 
ORIGINATOR     = 

OBJECT_NAME    = STARLINK-37083
OBJECT_ID      = 2026-053W
CENTER_NAME    = EARTH
REF_FRAME      = TEME
TIME_SYSTEM    = UTC
MEAN_ELEMENT_THEORY = SGP/SGP4

EPOCH          = 2026-03-30T04:00:01.999584
MEAN_MOTION    = 15.80909931
ECCENTRICITY   = .0001519
INCLINATION    = 97.2845
RA_OF_ASC_NODE = 324.4595
ARG_OF_PERICENTER = 88.8395
MEAN_ANOMALY   = 277.6286

EPHEMERIS_TYPE = 0
CLASSIFICATION_TYPE = U
NORAD_CAT_ID   = 68227
ELEMENT_SET_NO = 999
REV_AT_EPOCH   = 330
BSTAR          = -.10386E-2
MEAN_MOTION_DOT = -.195547E-2
MEAN_MOTION_DDOT = 0

CCSDS_OMM_VERS = 2.0
CREATION_DATE  = 
ORIGINATOR     = 

OBJECT_NAME    = STARLINK-37050
OBJECT_ID      = 2026-053X
CENTER_NAME    = EARTH
REF_FRAME      = TEME
TIME_SYSTEM    = UTC
MEAN_ELEMENT_THEORY = SGP/SGP4

EPOCH          = 2026-03-30T04:00:01.999584
MEAN_MOTION    = 15.80815130
ECCENTRICITY   = .0001379
INCLINATION    = 97.2844
RA_OF_ASC_NODE = 324.4632
ARG_OF_PERICENTER = 74.3094
MEAN_ANOMALY   = 300.7243

EPHEMERIS_TYPE = 0
CLASSIFICATION_TYPE = U
NORAD_CAT_ID   = 68228
ELEMENT_SET_NO = 999
REV_AT_EPOCH   = 328
BSTAR          = -.42592E-4
MEAN_MOTION_DOT = -.8292E-4
MEAN_MOTION_DDOT = 0

CCSDS_OMM_VERS = 2.0
CREATION_DATE  = 
ORIGINATOR     = 

OBJECT_NAME    = STARLINK-37081
OBJECT_ID      = 2026-053Y
CENTER_NAME    = EARTH
REF_FRAME      = TEME
TIME_SYSTEM    = UTC
MEAN_ELEMENT_THEORY = SGP/SGP4

EPOCH          = 2026-03-30T04:00:01.999584
MEAN_MOTION    = 15.75547593
ECCENTRICITY   = .0001673
INCLINATION    = 97.2837
RA_OF_ASC_NODE = 324.4655
ARG_OF_PERICENTER = 100.3143
MEAN_ANOMALY   = 277.3283

EPHEMERIS_TYPE = 0
CLASSIFICATION_TYPE = U
NORAD_CAT_ID   = 68229
ELEMENT_SET_NO = 999
REV_AT_EPOCH   = 330
BSTAR          = -.38609E-2
MEAN_MOTION_DOT = -.549058E-2
MEAN_MOTION_DDOT = 0

CCSDS_OMM_VERS = 2.0
CREATION_DATE  = 
ORIGINATOR     = 

OBJECT_NAME    = STARLINK-37100
OBJECT_ID      = 2026-053Z
CENTER_NAME    = EARTH
REF_FRAME      = TEME
TIME_SYSTEM    = UTC
MEAN_ELEMENT_THEORY = SGP/SGP4

EPOCH          = 2026-03-30T04:00:01.999584
MEAN_MOTION    = 15.80797280
ECCENTRICITY   = .0001001
INCLINATION    = 97.2851
RA_OF_ASC_NODE = 324.4652
ARG_OF_PERICENTER = 89.5884
MEAN_ANOMALY   = 289.7269

EPHEMERIS_TYPE = 0
CLASSIFICATION_TYPE = U
NORAD_CAT_ID   = 68230
ELEMENT_SET_NO = 999
REV_AT_EPOCH   = 330
BSTAR          = .10773E-3
MEAN_MOTION_DOT = .20524E-3
MEAN_MOTION_DDOT = 0

CCSDS_OMM_VERS = 2.0
CREATION_DATE  = 
ORIGINATOR     = 

OBJECT_NAME    = STARLINK-37104
OBJECT_ID      = 2026-053AA
CENTER_NAME    = EARTH
REF_FRAME      = TEME
TIME_SYSTEM    = UTC
MEAN_ELEMENT_THEORY = SGP/SGP4

EPOCH          = 2026-03-30T04:00:01.999584
MEAN_MOTION    = 15.80756735
ECCENTRICITY   = .000144
INCLINATION    = 97.2846
RA_OF_ASC_NODE = 324.4664
ARG_OF_PERICENTER = 108.8853
MEAN_ANOMALY   = 274.7143

EPHEMERIS_TYPE = 0
CLASSIFICATION_TYPE = U
NORAD_CAT_ID   = 68231
ELEMENT_SET_NO = 999
REV_AT_EPOCH   = 330
BSTAR          = .39697E-3
MEAN_MOTION_DOT = .76358E-3
MEAN_MOTION_DDOT = 0

CCSDS_OMM_VERS = 2.0
CREATION_DATE  = 
ORIGINATOR     = 

OBJECT_NAME    = STARLINK-37027
OBJECT_ID      = 2026-054A
CENTER_NAME    = EARTH
REF_FRAME      = TEME
TIME_SYSTEM    = UTC
MEAN_ELEMENT_THEORY = SGP/SGP4

EPOCH          = 2026-03-30T04:00:01.999584
MEAN_MOTION    = 15.75168348
ECCENTRICITY   = .0001015
INCLINATION    = 53.1595
RA_OF_ASC_NODE = 210.0813
ARG_OF_PERICENTER = 88.7103
MEAN_ANOMALY   = 208.2486

EPHEMERIS_TYPE = 0
CLASSIFICATION_TYPE = U
NORAD_CAT_ID   = 68232
ELEMENT_SET_NO = 999
REV_AT_EPOCH   = 320
BSTAR          = .77409E-3
MEAN_MOTION_DOT = .119336E-2
MEAN_MOTION_DDOT = 0

